{
  "norad_id": 68139,
  "name": "SHIYAN-30 03",
  "history": [
    {
      "epoch": "2026-03-28T20:19:53.393664Z",
      "apogee_km": 594.7843623439603,
      "perigee_km": 590.3346879241053,
      "latitude_deg": 3.548985081187025e-05,
      "longitude_deg": -101.98414406226954,
      "height_km": 589.2583004206905,
      "semi_major_axis_km": 6970.6965251340325,
      "eccentricity": 0.00031917,
      "inclination_deg": 35.0012,
      "raan_deg": 29.25,
      "arg_perigee_deg": 358.4198,
      "mean_anomaly_deg": 1.6497,
      "mean_motion_rev_day": 14.91724073
    },
    {
      "epoch": "2026-03-30T06:03:49.498272Z",
      "apogee_km": 594.6283918865947,
      "perigee_km": 590.4228517136098,
      "latitude_deg": 2.31854677829844e-05,
      "longitude_deg": 102.22613566790042,
      "height_km": 589.387424019677,
      "semi_major_axis_km": 6970.662621800102,
      "eccentricity": 0.00030166,
      "inclination_deg": 35.0013,
      "raan_deg": 20.8294,
      "arg_perigee_deg": 11.5329,
      "mean_anomaly_deg": 348.5445,
      "mean_motion_rev_day": 14.91734956
    },
    {
      "epoch": "2026-03-30T12:29:20.079456Z",
      "apogee_km": 594.5868370084436,
      "perigee_km": 590.4519830391446,
      "latitude_deg": 6.478098603408394e-06,
      "longitude_deg": 3.98081864383804,
      "height_km": 589.4312138953655,
      "semi_major_axis_km": 6970.656410023794,
      "eccentricity": 0.00029659,
      "inclination_deg": 35.0014,
      "raan_deg": 19.2254,
      "arg_perigee_deg": 13.5089,
      "mean_anomaly_deg": 346.5695,
      "mean_motion_rev_day": 14.9173695
    },
    {
      "epoch": "2026-03-30T17:18:28.009728Z",
      "apogee_km": 594.5618502759835,
      "perigee_km": 590.4686832649359,
      "latitude_deg": -1.1914351440278935e-05,
      "longitude_deg": -69.70305398563474,
      "height_km": 589.4647110340926,
      "semi_major_axis_km": 6970.652266770459,
      "eccentricity": 0.0002936,
      "inclination_deg": 35.0014,
      "raan_deg": 18.0225,
      "arg_perigee_deg": 15.4638,
      "mean_anomaly_deg": 344.6156,
      "mean_motion_rev_day": 14.9173828
    }
  ]
}